[{"OBJECT_NAME":"KUIPER-00275","OBJECT_ID":"2026-030AF","EPOCH":"2026-03-09T17:04:44.260032","MEAN_MOTION":15.34756533,"ECCENTRICITY":0.0009337,"INCLINATION":51.8837,"RA_OF_ASC_NODE":219.2226,"ARG_OF_PERICENTER":52.8442,"MEAN_ANOMALY":307.3396,"EPHEMERIS_TYPE":0,"CLASSIFICATION_TYPE":"U","NORAD_CAT_ID":67793,"ELEMENT_SET_NO":999,"REV_AT_EPOCH":509,"BSTAR":0.00095700084,"MEAN_MOTION_DOT":0.00032535,"MEAN_MOTION_DDOT":0},{"OBJECT_NAME":"CLEMENTINE","OBJECT_ID":"1999-064B","EPOCH":"2026-03-09T16:58:36.056928","MEAN_MOTION":15.35516263,"ECCENTRICITY":0.00030137,"INCLINATION":98.1478,"RA_OF_ASC_NODE":152.1493,"ARG_OF_PERICENTER":134.888,"MEAN_ANOMALY":225.2607,"EPHEMERIS_TYPE":0,"CLASSIFICATION_TYPE":"U","NORAD_CAT_ID":25978,"ELEMENT_SET_NO":999,"REV_AT_EPOCH":69326,"BSTAR":0.00073237902,"MEAN_MOTION_DOT":0.00025245,"MEAN_MOTION_DDOT":0}]
